satname,norad_id,inclination_deg,eccentricity,mean_motion_rev_per_day,perigee_km,apogee_km,l1,l2
STARLINK-1513,45786,53.0767,0.0001474,15.11999091,529.0858531691138,531.1224026536211,1 45786U 20038BJ  26029.50003471  .01121682  00000+0  59491-1 0  9991,2 45786  53.0767  12.4900 0001474  64.3798 306.1566 15.11999091  5815
STARLINK-1522,46027,53.0546,0.0001128,15.06409022,546.4027307473834,547.9650831439903,1 46027U 20055A   26029.48471097  .00004000  00000+0  28717-3 0  9991,2 46027  53.0546 302.6157 0001128  83.8581 276.2536 15.06409022302974
STARLINK-1523,46028,53.0557,0.0001181,15.0639361,546.4132564595566,548.0490284147991,1 46028U 20055B   26028.90233408  .00001268  00000+0  10404-3 0  9997,2 46028  53.0557 305.2305 0001181  86.2360 273.8765 15.06393610302907
STARLINK-1526,46029,53.0553,0.0001246,15.06402082,546.3422792802457,548.0680745507325,1 46029U 20055C   26028.96131355  .00003383  00000+0  24587-3 0  9999,2 46029  53.0553 304.9658 0001246 118.4101 241.7014 15.06402082302909
STARLINK-1555,46032,53.0535,0.0002047,15.06403364,545.7836310426483,548.6188645212906,1 46032U 20055F   26029.47733503 -.00002487  00000+0 -14810-3 0  9997,2 46032  53.0535 302.6482 0002047  91.2826 268.8398 15.06403364302982
STARLINK-1556,46033,53.052,5.79e-05,15.06449228,546.6597163710894,547.4616542630492,1 46033U 20055G   26029.45889779 -.00020504  00000+0 -13598-2 0  9994,2 46033  53.0520 302.7315 0000579  83.8739 276.2316 15.06449228302950
STARLINK-1557,46034,53.0536,0.000139,15.0638256,546.3023786628173,548.2276404214699,1 46034U 20055H   26029.46260992  .00001364  00000+0  11048-3 0  9996,2 46034  53.0536 302.7134 0001390  89.1011 271.0137 15.06382560302950
STARLINK-1558,46035,53.0549,0.0001571,15.06408356,546.097979884994,548.2739163552933,1 46035U 20055J   26028.93918667 -.00000035  00000+0  16549-4 0  9994,2 46035  53.0549 305.0702 0001571 113.1340 246.9815 15.06408356302907
STARLINK-1560,46036,53.0525,0.0001469,15.06398002,546.2003469245647,548.2350161299973,1 46036U 20055K   26029.45523526  .00008071  00000+0  56016-3 0  9998,2 46036  53.0525 302.7500 0001469  89.2059 270.9098 15.06398002302982
STARLINK-1567,46038,53.0546,0.0001182,15.06427894,546.3075020702709,547.9446342595838,1 46038U 20055M   26028.93551438  .00012974  00000+0  88762-3 0  9995,2 46038  53.0546 305.0798 0001182  87.1331 272.9794 15.06427894302891
STARLINK-1569,46039,53.0532,0.0001849,15.06410847,545.8978228435208,548.4588044465072,1 46039U 20055N   26028.94288014  .00007971  00000+0  55322-3 0  9991,2 46039  53.0532 305.0466 0001849 102.2458 257.8739 15.06410847302899
STARLINK-1582,46043,53.0538,0.0001097,15.06405403,546.4352896507025,547.9547074911898,1 46043U 20055S   26028.95025077  .00001865  00000+0  14401-3 0  9994,2 46043  53.0538 305.0147 0001097  79.9122 280.1990 15.06405403302899
STARLINK-1591,46045,53.0551,0.0001935,15.06440169,545.7484173500425,548.4284795986014,1 46045U 20055U   26028.97603175 -.00014283  00000+0 -94084-3 0  9994,2 46045  53.0551 304.9097 0001935 106.7860 253.3342 15.06440169302887
STARLINK-1524,46047,53.0538,0.0001594,15.06423974,546.0341932075453,548.2419709037049,1 46047U 20055W   26029.45982478  .00010293  00000+0  70846-3 0  9991,2 46047  53.0538 292.7274 0001594  92.1479 267.9693 15.06423974303112
STARLINK-1527,46048,53.0546,0.0002077,15.06415255,545.7264187702749,548.6031891396378,1 46048U 20055X   26028.99172441 -.00004638  00000+0 -29251-3 0  9993,2 46048  53.0546 294.8326 0002077  54.8143 305.3040 15.06415255303029
STARLINK-1540,46051,53.0533,0.000144,15.06402325,546.2071829910728,548.2016813235341,1 46051U 20055AA  26028.95855417  .00007977  00000+0  55374-3 0  9996,2 46051  53.0533 294.9819 0001440  66.2154 293.8986 15.06402325303056
STARLINK-1541,46052,53.0559,0.0001673,15.06412705,546.0140149175131,548.3312235161029,1 46052U 20055AB  26028.74475693 -.00006826  00000+0 -43960-3 0  9990,2 46052  53.0559 295.9366 0001673  92.7837 267.3344 15.06412705302981
STARLINK-1543,46053,53.0554,0.0001294,15.06404266,546.3023448820113,548.0946217050878,1 46053U 20055AC  26028.94748036  .00001348  00000+0  10937-3 0  9997,2 46053  53.0554 295.0276 0001294  22.9298 337.1748 15.06404266303048
STARLINK-1548,46054,53.0558,0.0001549,15.06410428,546.1068662635544,548.2523293455542,1 46054U 20055AD  26028.95485611  .00003811  00000+0  27451-3 0  9992,2 46054  53.0558 294.9959 0001549  87.6731 272.4435 15.06410428303043
STARLINK-1554,46055,53.0545,0.0001493,15.06406706,546.1570536192039,548.2249565615239,1 46055U 20055AE  26028.94012197  .00016408  00000+0  11177-2 0  9990,2 46055  53.0545 295.0602 0001493  89.9852 270.1309 15.06406706303043
STARLINK-1564,46058,53.0536,0.0001407,15.06420464,546.1744517180341,548.1232271532517,1 46058U 20055AH  26029.41565964  .00010727  00000+0  73751-3 0  9996,2 46058  53.0536 293.3868 0001407  73.8657 286.2487 15.06420464303100
STARLINK-1570,46059,53.054,0.0001328,15.06391876,546.3167673450262,548.1561465351897,1 46059U 20055AJ  26029.44509551  .00002501  00000+0  18674-3 0  9994,2 46059  53.0540 292.7951 0001328  65.0604 295.0523 15.06391876303078
STARLINK-1572,46060,53.0527,0.0001625,15.06428907,545.9976088193016,548.2483183074592,1 46060U 20055AK  26029.44140987  .00021922  00000+0  14849-2 0  9997,2 46060  53.0527 292.8095 0001625  86.7796 273.3379 15.06428907303082
STARLINK-1573,46061,53.0545,0.0001378,15.063991,546.260002898639,548.1686297214146,1 46061U 20055AL  26029.43772906  .00003752  00000+0  27068-3 0  9998,2 46061  53.0545 292.8636 0001378  88.8901 271.2246 15.06399100303116
STARLINK-1577,46063,53.0548,0.0001796,15.06382989,546.0198927291058,548.5074966586399,1 46063U 20055AN  26028.93273393 -.00003705  00000+0 -23002-3 0  9994,2 46063  53.0548 295.0933 0001796  62.2624 297.8547 15.06382989303034
STARLINK-1583,46064,53.0545,0.0001605,15.06406863,546.0790088440008,548.3020389791764,1 46064U 20055AP  26029.43034302  .00002299  00000+0  17317-3 0  9993,2 46064  53.0545 292.8596 0001605  96.7889 263.3283 15.06406863303118
STARLINK-1525,46066,53.0548,0.0001503,15.06408892,546.1434295808185,548.225181165214,1 46066U 20055AR  26028.89772307  .00001932  00000+0  14853-3 0  9993,2 46066  53.0548 275.2525 0001503  97.5432 262.5728 15.06408892303300
STARLINK-1536,46070,53.0543,0.0001551,15.06413755,546.0952861423193,548.2435161879603,1 46070U 20055AV  26028.94195307 -.00005289  00000+0 -33628-3 0  9995,2 46070  53.0543 275.0489 0001551  94.0198 266.0968 15.06413755303322
